ONEWEB-0584             
1 54651U 22166K   24033.57347320  .00000020  00000+0  16471-4 0  9995
2 54651  87.9207  56.2741 0001744 106.6213 253.5112 13.21825334 57638
ONEWEB-0585             
1 54652U 22166L   24033.59868894  .00000036  00000+0  55014-4 0  9995
2 54652  87.9208  56.2745 0002139  93.6621 266.4758 13.21825631 57179
ONEWEB-0586             
1 54653U 22166M   24033.61132172 -.00000028  00000+0 -99998-4 0  9994
2 54653  87.9204  56.2959 0001781  96.8320 263.3016 13.21824577 57177
ONEWEB-0587             
1 54654U 22166N   24033.62078401  .00000088  00000+0  18229-3 0  9991
2 54654  87.9200  56.2511 0002053  84.5244 275.6124 13.21827779 57331
ONEWEB-0589             
1 54655U 22166P   24033.60816612  .00000019  00000+0  14889-4 0  9997
2 54655  87.9206  56.2797 0001453 125.2151 234.9119 13.21824864 57195
ONEWEB-0590             
1 54656U 22166Q   24033.55614147  .00000355  00000+0  82900-3 0  9992
2 54656  87.9211  56.2924 0001829  83.7684 276.3658 13.21826288 57178
ONEWEB-0591             
1 54657U 22166R   24033.56872886  .00000043  00000+0  72315-4 0  9994
2 54657  87.9204  56.2919 0001733  97.6015 262.5316 13.21826702 57204
ONEWEB-0592             
1 54658U 22166S   24033.95038062  .00000052  00000+0  93222-4 0  9998
2 54658  87.9201  56.1861 0001656 100.2659 259.8661 13.21825245 57131
